{"type": "FeatureCollection", "features": [ {"type": "Feature", "properties": {"norad_id": 35825, "name": "COSMOS 2251 DEB", "group": "cosmos-2251-debris", "lat": 9.995414350696157, "lon": -26.9438232118535, "alt_km": 961.157163997852, "timestamp": "2025-12-04T15:47:54.495909+00:00", "meta": {"OBJECT_NAME": "COSMOS 2251 DEB", "OBJECT_ID": "1993-036ASX", "EPOCH": "2025-11-18T20:38:01.180896", "MEAN_MOTION": 13.70825357, "ECCENTRICITY": 0.03535711, "INCLINATION": 74.1138, "RA_OF_ASC_NODE": 181.8907, "ARG_OF_PERICENTER": 283.1782, "MEAN_ANOMALY": 73.0118, "EPHEMERIS_TYPE": 0, "CLASSIFICATION_TYPE": "U", "NORAD_CAT_ID": 35825, "ELEMENT_SET_NO": 999, "REV_AT_EPOCH": 82181, "BSTAR": 0.0013809564, "MEAN_MOTION_DOT": 1.891e-05, "MEAN_MOTION_DDOT": 0}, "tle": {"line1": "1 35825U 93036ASX 25322.85973589  .00001891  00000+0  13810-2 0  9995", "line2": "2 35825  74.1138 181.8907 0353571 283.1782  73.0118 13.70825357821819"}}, "geometry": {"type": "Point", "coordinates": [-26.9438232118535, 9.995414350696157]}}, {"type": "Feature", "properties": {"norad_id": 35829, "name": "COSMOS 2251 DEB", "group": "cosmos-2251-debris", "lat": -56.08827203965971, "lon": -40.13731739008539, "alt_km": 646.8929891526686, "timestamp": "2025-12-04T15:47:54.495920+00:00", "meta": {"OBJECT_NAME": "COSMOS 2251 DEB", "OBJECT_ID": "1993-036ATB", "EPOCH": "2025-12-04T01:42:07.569216", "MEAN_MOTION": 14.75878061, "ECCENTRICITY": 0.00074898, "INCLINATION": 74.0233, "RA_OF_ASC_NODE": 115.7881, "ARG_OF_PERICENTER": 173.9555, "MEAN_ANOMALY": 186.1711, "EPHEMERIS_TYPE": 0, "CLASSIFICATION_TYPE": "U", "NORAD_CAT_ID": 35829, "ELEMENT_SET_NO": 999, "REV_AT_EPOCH": 87647, "BSTAR": 0.0046734359, "MEAN_MOTION_DOT": 0.00032229, "MEAN_MOTION_DDOT": 0}, "tle": {"line1": "1 35829U 93036ATB 25338.07092094  .00032229  00000+0  46734-2 0  9993", "line2": "2 35829  74.0233 115.7881 0007489 173.9555 186.1711 14.75878061876476"}}, "geometry": {"type": "Point", "coordinates": [-40.13731739008539, -56.08827203965971]}}, {"type": "Feature", "properties": {"norad_id": 35830, "name": "COSMOS 2251 DEB", "group": "cosmos-2251-debris", "lat": -70.08904785499777, "lon": 154.2073159825447, "alt_km": 731.263436289787, "timestamp": "2025-12-04T15:47:54.495930+00:00", "meta": {"OBJECT_NAME": "COSMOS 2251 DEB", "OBJECT_ID": "1993-036ATC", "EPOCH": "2025-12-04T04:28:02.479584", "MEAN_MOTION": 14.23905065, "ECCENTRICITY": 0.01230731, "INCLINATION": 73.8631, "RA_OF_ASC_NODE": 282.002, "ARG_OF_PERICENTER": 251.8911, "MEAN_ANOMALY": 106.8799, "EPHEMERIS_TYPE": 0, "CLASSIFICATION_TYPE": "U", "NORAD_CAT_ID": 35830, "ELEMENT_SET_NO": 999, "REV_AT_EPOCH": 61142, "BSTAR": 0.0019117208, "MEAN_MOTION_DOT": 4.714e-05, "MEAN_MOTION_DDOT": 0}, "tle": {"line1": "1 35830U 93036ATC 25338.18613981  .00004714  00000+0  19117-2 0  9994", "line2": "2 35830  73.8631 282.0020 0123073 251.8911 106.8799 14.23905065611425"}}, "geometry": {"type": "Point", "coordinates": [154.2073159825447, -70.08904785499777]}}, {"type": "Feature", "properties": {"norad_id": 35834, "name": "COSMOS 2251 DEB", "group": "cosmos-2251-debris", "lat": 51.357396100530906, "lon": -19.94499139409632, "alt_km": 812.0479626586093, "timestamp": "2025-12-04T15:47:54.495941+00:00", "meta": {"OBJECT_NAME": "COSMOS 2251 DEB", "OBJECT_ID": "1993-036ATG", "EPOCH": "2025-12-04T05:26:40.982208", "MEAN_MOTION": 14.12967901, "ECCENTRICITY": 0.01091056, "INCLINATION": 73.9304, "RA_OF_ASC_NODE": 319.69, "ARG_OF_PERICENTER": 121.8785, "MEAN_ANOMALY": 260.1307, "EPHEMERIS_TYPE": 0, "CLASSIFICATION_TYPE": "U", "NORAD_CAT_ID": 35834, "ELEMENT_SET_NO": 999, "REV_AT_EPOCH": 66143, "BSTAR": 0.00027149223, "MEAN_MOTION_DOT": 5.11e-06, "MEAN_MOTION_DDOT": 0}, "tle": {"line1": "1 35834U 93036ATG 25338.22686322  .00000511  00000+0  27149-3 0  9998", "line2": "2 35834  73.9304 319.6900 0109105 121.8785 260.1307 14.12967901661436"}}, "geometry": {"type": "Point", "coordinates": [-19.94499139409632, 51.357396100530906]}}, {"type": "Feature", "properties": {"norad_id": 35835, "name": "COSMOS 2251 DEB", "group": "cosmos-2251-debris", "lat": 28.52740515874641, "lon": 93.09209040136383, "alt_km": 925.6034075025127, "timestamp": "2025-12-04T15:47:54.495951+00:00", "meta": {"OBJECT_NAME": "COSMOS 2251 DEB", "OBJECT_ID": "1993-036ATH", "EPOCH": "2025-11-23T15:11:23.439552", "MEAN_MOTION": 13.82767918, "ECCENTRICITY": 0.02888493, "INCLINATION": 74.0623, "RA_OF_ASC_NODE": 300.5555, "ARG_OF_PERICENTER": 86.7647, "MEAN_ANOMALY": 276.6477, "EPHEMERIS_TYPE": 0, "CLASSIFICATION_TYPE": "U", "NORAD_CAT_ID": 35835, "ELEMENT_SET_NO": 999, "REV_AT_EPOCH": 61435, "BSTAR": 0.00097699609, "MEAN_MOTION_DOT": 1.444e-05, "MEAN_MOTION_DDOT": 0}, "tle": {"line1": "1 35835U 93036ATH 25327.63291018  .00001444  00000+0  97700-3 0  9992", "line2": "2 35835  74.0623 300.5555 0288849  86.7647 276.6477 13.82767918614358"}}, "geometry": {"type": "Point", "coordinates": [93.09209040136383, 28.52740515874641]}}, {"type": "Feature", "properties": {"norad_id": 35836, "name": "COSMOS 2251 DEB", "group": "cosmos-2251-debris", "lat": -30.73709219814508, "lon": 178.824969720494, "alt_km": 661.4625265523327, "timestamp": "2025-12-04T15:47:54.495961+00:00", "meta": {"OBJECT_NAME": "COSMOS 2251 DEB", "OBJECT_ID": "1993-036ATJ", "EPOCH": "2025-12-03T07:17:31.835616", "MEAN_MOTION": 14.70639126, "ECCENTRICITY": 0.0025001, "INCLINATION": 74.0317, "RA_OF_ASC_NODE": 191.2565, "ARG_OF_PERICENTER": 251.0331, "MEAN_ANOMALY": 108.8131, "EPHEMERIS_TYPE": 0, "CLASSIFICATION_TYPE": "U", "NORAD_CAT_ID": 35836, "ELEMENT_SET_NO": 999, "REV_AT_EPOCH": 63381, "BSTAR": 0.0020272, "MEAN_MOTION_DOT": 0.00012386, "MEAN_MOTION_DDOT": 0}, "tle": {"line1": "1 35836U 93036ATJ 25337.30384069  .00012386  00000+0  20272-2 0  9993", "line2": "2 35836  74.0317 191.2565 0025001 251.0331 108.8131 14.70639126633813"}}, "geometry": {"type": "Point", "coordinates": [178.824969720494, -30.73709219814508]}}, {"type": "Feature", "properties": {"norad_id": 35837, "name": "COSMOS 2251 DEB", "group": "cosmos-2251-debris", "lat": 44.33363649609197, "lon": 24.483979123017885, "alt_km": 711.0639837463941, "timestamp": "2025-12-04T15:47:54.495972+00:00", "meta": {"OBJECT_NAME": "COSMOS 2251 DEB", "OBJECT_ID": "1993-036ATK", "EPOCH": "2025-12-04T01:24:29.156256", "MEAN_MOTION": 13.63390826, "ECCENTRICITY": 0.04220999, "INCLINATION": 73.7219, "RA_OF_ASC_NODE": 222.0677, "ARG_OF_PERICENTER": 144.2331, "MEAN_ANOMALY": 287.9035, "EPHEMERIS_TYPE": 0, "CLASSIFICATION_TYPE": "U", "NORAD_CAT_ID": 35837, "ELEMENT_SET_NO": 999, "REV_AT_EPOCH": 57858, "BSTAR": 0.0026672111, "MEAN_MOTION_DOT": 3.824e-05, "MEAN_MOTION_DDOT": 0}, "tle": {"line1": "1 35837U 93036ATK 25338.05867079  .00003824  00000+0  26672-2 0  9991", "line2": "2 35837  73.7219 222.0677 0422099 144.2331 287.9035 13.63390826578585"}}, "geometry": {"type": "Point", "coordinates": [24.483979123017885, 44.33363649609197]}}, {"type": "Feature", "properties": {"norad_id": 35839, "name": "COSMOS 2251 DEB", "group": "cosmos-2251-debris", "lat": 22.554354985667995, "lon": 154.29504358539276, "alt_km": 431.3582450908234, "timestamp": "2025-12-04T15:47:54.495982+00:00", "meta": {"OBJECT_NAME": "COSMOS 2251 DEB", "OBJECT_ID": "1993-036ATM", "EPOCH": "2025-12-02T18:04:00.314688", "MEAN_MOTION": 15.45031153, "ECCENTRICITY": 0.0004071, "INCLINATION": 74.215, "RA_OF_ASC_NODE": 345.1465, "ARG_OF_PERICENTER": 349.5687, "MEAN_ANOMALY": 10.544, "EPHEMERIS_TYPE": 0, "CLASSIFICATION_TYPE": "U", "NORAD_CAT_ID": 35839, "ELEMENT_SET_NO": 999, "REV_AT_EPOCH": 88413, "BSTAR": 0.004021, "MEAN_MOTION_DOT": 0.00194741, "MEAN_MOTION_DDOT": 0}, "tle": {"line1": "1 35839U 93036ATM 25336.75278142  .00194741  00000+0  40210-2 0  9998", "line2": "2 35839  74.2150 345.1465 0004071 349.5687  10.5440 15.45031153884137"}}, "geometry": {"type": "Point", "coordinates": [154.29504358539276, 22.554354985667995]}}, {"type": "Feature", "properties": {"norad_id": 35840, "name": "COSMOS 2251 DEB", "group": "cosmos-2251-debris", "lat": -59.632973154523185, "lon": 143.68588673104782, "alt_km": 837.5007858926829, "timestamp": "2025-12-04T15:47:54.495992+00:00", "meta": {"OBJECT_NAME": "COSMOS 2251 DEB", "OBJECT_ID": "1993-036ATN", "EPOCH": "2025-12-03T06:41:48.528096", "MEAN_MOTION": 14.37668767, "ECCENTRICITY": 0.0116177, "INCLINATION": 73.9299, "RA_OF_ASC_NODE": 175.711, "ARG_OF_PERICENTER": 80.5155, "MEAN_ANOMALY": 280.9106, "EPHEMERIS_TYPE": 0, "CLASSIFICATION_TYPE": "U", "NORAD_CAT_ID": 35840, "ELEMENT_SET_NO": 999, "REV_AT_EPOCH": 85155, "BSTAR": 0.0020521, "MEAN_MOTION_DOT": 6.645e-05, "MEAN_MOTION_DDOT": 0}, "tle": {"line1": "1 35840U 93036ATN 25337.27903389  .00006645  00000+0  20521-2 0  9994", "line2": "2 35840  73.9299 175.7110 0116177  80.5155 280.9106 14.37668767851555"}}, "geometry": {"type": "Point", "coordinates": [143.68588673104782, -59.632973154523185]}}, {"type": "Feature", "properties": {"norad_id": 35883, "name": "COSMOS 2251 DEB", "group": "cosmos-2251-debris", "lat": -68.07960372228602, "lon": 39.84129307400355, "alt_km": 708.9705709053296, "timestamp": "2025-12-04T15:47:54.496003+00:00", "meta": {"OBJECT_NAME": "COSMOS 2251 DEB", "OBJECT_ID": "1993-036ATW", "EPOCH": "2025-11-29T02:53:29.744160", "MEAN_MOTION": 14.50541303, "ECCENTRICITY": 0.00841977, "INCLINATION": 74.0237, "RA_OF_ASC_NODE": 95.6459, "ARG_OF_PERICENTER": 227.8885, "MEAN_ANOMALY": 309.997, "EPHEMERIS_TYPE": 0, "CLASSIFICATION_TYPE": "U", "NORAD_CAT_ID": 35883, "ELEMENT_SET_NO": 999, "REV_AT_EPOCH": 62188, "BSTAR": 0.00041574036, "MEAN_MOTION_DOT": 1.674e-05, "MEAN_MOTION_DDOT": 0}, "tle": {"line1": "1 35883U 93036ATW 25333.12048315  .00001674  00000+0  41574-3 0  9999", "line2": "2 35883  74.0237  95.6459 0084197 227.8885 309.9970 14.50541303621887"}}, "geometry": {"type": "Point", "coordinates": [39.84129307400355, -68.07960372228602]}}]}